[{"OBJECT_NAME":"STARLINK-33997","OBJECT_ID":"2025-098C","EPOCH":"2026-03-09T22:20:46.078368","MEAN_MOTION":14.96551413,"ECCENTRICITY":0.00068477,"INCLINATION":70.0004,"RA_OF_ASC_NODE":274.0384,"ARG_OF_PERICENTER":77.5305,"MEAN_ANOMALY":282.6619,"EPHEMERIS_TYPE":0,"CLASSIFICATION_TYPE":"U","NORAD_CAT_ID":63928,"ELEMENT_SET_NO":999,"REV_AT_EPOCH":4660,"BSTAR":-0.062237161,"MEAN_MOTION_DOT":-0.00663337,"MEAN_MOTION_DDOT":0},{"OBJECT_NAME":"DELTA 1 DEB","OBJECT_ID":"1975-004BL","EPOCH":"2026-03-09T16:53:17.012832","MEAN_MOTION":14.87505635,"ECCENTRICITY":0.00265153,"INCLINATION":97.7994,"RA_OF_ASC_NODE":141.7903,"ARG_OF_PERICENTER":181.1932,"MEAN_ANOMALY":178.9225,"EPHEMERIS_TYPE":0,"CLASSIFICATION_TYPE":"U","NORAD_CAT_ID":8978,"ELEMENT_SET_NO":999,"REV_AT_EPOCH":65253,"BSTAR":0.00032949434,"MEAN_MOTION_DOT":2.951e-5,"MEAN_MOTION_DDOT":0}]
